[{"OBJECT_NAME":"GOES 1 (SMS-C)","OBJECT_ID":"1975-100A","EPOCH":"2026-03-05T13:25:22.476288","MEAN_MOTION":1.00237662,"ECCENTRICITY":0.0005403,"INCLINATION":4.8717,"RA_OF_ASC_NODE":278.7365,"ARG_OF_PERICENTER":0.0147,"MEAN_ANOMALY":325.0914,"EPHEMERIS_TYPE":0,"CLASSIFICATION_TYPE":"U","NORAD_CAT_ID":8366,"ELEMENT_SET_NO":999,"REV_AT_EPOCH":18402,"BSTAR":0,"MEAN_MOTION_DOT":4.0e-8,"MEAN_MOTION_DDOT":0},{"OBJECT_NAME":"GOES 2","OBJECT_ID":"1977-048A","EPOCH":"2026-03-05T14:31:46.109856","MEAN_MOTION":0.99396652,"ECCENTRICITY":0.0013896,"INCLINATION":6.6664,"RA_OF_ASC_NODE":294.2104,"ARG_OF_PERICENTER":47.7608,"MEAN_ANOMALY":151.1561,"EPHEMERIS_TYPE":0,"CLASSIFICATION_TYPE":"U","NORAD_CAT_ID":10061,"ELEMENT_SET_NO":999,"REV_AT_EPOCH":4524,"BSTAR":0,"MEAN_MOTION_DOT":-2.35e-6,"MEAN_MOTION_DDOT":0},{"OBJECT_NAME":"GOES 3","OBJECT_ID":"1978-062A","EPOCH":"2026-03-05T09:36:05.578848","MEAN_MOTION":0.99365983,"ECCENTRICITY":0.0002756,"INCLINATION":7.1366,"RA_OF_ASC_NODE":300.0418,"ARG_OF_PERICENTER":355.7682,"MEAN_ANOMALY":166.5519,"EPHEMERIS_TYPE":0,"CLASSIFICATION_TYPE":"U","NORAD_CAT_ID":10953,"ELEMENT_SET_NO":999,"REV_AT_EPOCH":12750,"BSTAR":0,"MEAN_MOTION_DOT":-2.92e-6,"MEAN_MOTION_DDOT":0},{"OBJECT_NAME":"GOES 4","OBJECT_ID":"1980-074A","EPOCH":"2026-03-05T12:01:00.567264","MEAN_MOTION":0.99230664,"ECCENTRICITY":0.0032113,"INCLINATION":8.2099,"RA_OF_ASC_NODE":303.7237,"ARG_OF_PERICENTER":103.0559,"MEAN_ANOMALY":240.2129,"EPHEMERIS_TYPE":0,"CLASSIFICATION_TYPE":"U","NORAD_CAT_ID":11964,"ELEMENT_SET_NO":999,"REV_AT_EPOCH":12640,"BSTAR":0,"MEAN_MOTION_DOT":-2.22e-6,"MEAN_MOTION_DDOT":0},{"OBJECT_NAME":"GOES 5","OBJECT_ID":"1981-049A","EPOCH":"2026-03-05T05:01:01.951104","MEAN_MOTION":1.00211327,"ECCENTRICITY":0.0004656,"INCLINATION":9.5445,"RA_OF_ASC_NODE":316.3375,"ARG_OF_PERICENTER":337.1778,"MEAN_ANOMALY":215.8746,"EPHEMERIS_TYPE":0,"CLASSIFICATION_TYPE":"U","NORAD_CAT_ID":12472,"ELEMENT_SET_NO":999,"REV_AT_EPOCH":12180,"BSTAR":0,"MEAN_MOTION_DOT":-2.0e-6,"MEAN_MOTION_DDOT":0},{"OBJECT_NAME":"GOES 6","OBJECT_ID":"1983-041A","EPOCH":"2026-03-05T06:37:45.178176","MEAN_MOTION":1.00217783,"ECCENTRICITY":0.0002343,"INCLINATION":10.3561,"RA_OF_ASC_NODE":321.8949,"ARG_OF_PERICENTER":307.0066,"MEAN_ANOMALY":243.8951,"EPHEMERIS_TYPE":0,"CLASSIFICATION_TYPE":"U","NORAD_CAT_ID":14050,"ELEMENT_SET_NO":999,"REV_AT_EPOCH":21497,"BSTAR":0,"MEAN_MOTION_DOT":-7.5e-7,"MEAN_MOTION_DDOT":0},{"OBJECT_NAME":"GOES 7","OBJECT_ID":"1987-022A","EPOCH":"2026-03-05T08:13:28.498944","MEAN_MOTION":0.99895004,"ECCENTRICITY":0.0003961,"INCLINATION":13.02,"RA_OF_ASC_NODE":338.3678,"ARG_OF_PERICENTER":14.8217,"MEAN_ANOMALY":158.7836,"EPHEMERIS_TYPE":0,"CLASSIFICATION_TYPE":"U","NORAD_CAT_ID":17561,"ELEMENT_SET_NO":999,"REV_AT_EPOCH":12592,"BSTAR":0,"MEAN_MOTION_DOT":8.0e-7,"MEAN_MOTION_DDOT":0},{"OBJECT_NAME":"GOES 8","OBJECT_ID":"1994-022A","EPOCH":"2026-03-05T16:48:38.503296","MEAN_MOTION":0.98908263,"ECCENTRICITY":0.0005037,"INCLINATION":14.3417,"RA_OF_ASC_NODE":14.4605,"ARG_OF_PERICENTER":14.5221,"MEAN_ANOMALY":188.2323,"EPHEMERIS_TYPE":0,"CLASSIFICATION_TYPE":"U","NORAD_CAT_ID":23051,"ELEMENT_SET_NO":999,"REV_AT_EPOCH":12310,"BSTAR":0,"MEAN_MOTION_DOT":-2.71e-6,"MEAN_MOTION_DDOT":0},{"OBJECT_NAME":"GOES 9","OBJECT_ID":"1995-025A","EPOCH":"2026-03-05T08:27:19.672128","MEAN_MOTION":0.98798433,"ECCENTRICITY":0.0003609,"INCLINATION":13.8707,"RA_OF_ASC_NODE":15.3064,"ARG_OF_PERICENTER":210.8477,"MEAN_ANOMALY":338.5961,"EPHEMERIS_TYPE":0,"CLASSIFICATION_TYPE":"U","NORAD_CAT_ID":23581,"ELEMENT_SET_NO":999,"REV_AT_EPOCH":11173,"BSTAR":0,"MEAN_MOTION_DOT":-6.0e-7,"MEAN_MOTION_DDOT":0},{"OBJECT_NAME":"GOES 10","OBJECT_ID":"1997-019A","EPOCH":"2026-03-05T09:17:59.815104","MEAN_MOTION":0.99122042,"ECCENTRICITY":0.0030997,"INCLINATION":13.0052,"RA_OF_ASC_NODE":21.8402,"ARG_OF_PERICENTER":239.2527,"MEAN_ANOMALY":133.5205,"EPHEMERIS_TYPE":0,"CLASSIFICATION_TYPE":"U","NORAD_CAT_ID":24786,"ELEMENT_SET_NO":999,"REV_AT_EPOCH":10504,"BSTAR":0,"MEAN_MOTION_DOT":-5.8e-7,"MEAN_MOTION_DDOT":0},{"OBJECT_NAME":"GOES 11","OBJECT_ID":"2000-022A","EPOCH":"2026-03-05T10:11:26.071584","MEAN_MOTION":0.99040604,"ECCENTRICITY":0.0005932,"INCLINATION":11.5825,"RA_OF_ASC_NODE":47.4337,"ARG_OF_PERICENTER":254.8596,"MEAN_ANOMALY":293.2515,"EPHEMERIS_TYPE":0,"CLASSIFICATION_TYPE":"U","NORAD_CAT_ID":26352,"ELEMENT_SET_NO":999,"REV_AT_EPOCH":5144,"BSTAR":0,"MEAN_MOTION_DOT":-8.7e-7,"MEAN_MOTION_DDOT":0},{"OBJECT_NAME":"GOES 12","OBJECT_ID":"2001-031A","EPOCH":"2026-03-05T08:33:34.073568","MEAN_MOTION":0.99136879,"ECCENTRICITY":0.0008752,"INCLINATION":11.9966,"RA_OF_ASC_NODE":38.1347,"ARG_OF_PERICENTER":296.0625,"MEAN_ANOMALY":253.6596,"EPHEMERIS_TYPE":0,"CLASSIFICATION_TYPE":"U","NORAD_CAT_ID":26871,"ELEMENT_SET_NO":999,"REV_AT_EPOCH":8973,"BSTAR":0,"MEAN_MOTION_DOT":-1.82e-6,"MEAN_MOTION_DDOT":0},{"OBJECT_NAME":"EWS-G1 (GOES 13)","OBJECT_ID":"2006-018A","EPOCH":"2026-03-05T15:08:42.567936","MEAN_MOTION":0.98785237,"ECCENTRICITY":0.0062016,"INCLINATION":4.2641,"RA_OF_ASC_NODE":77.6873,"ARG_OF_PERICENTER":273.209,"MEAN_ANOMALY":281.9303,"EPHEMERIS_TYPE":0,"CLASSIFICATION_TYPE":"U","NORAD_CAT_ID":29155,"ELEMENT_SET_NO":999,"REV_AT_EPOCH":4222,"BSTAR":0,"MEAN_MOTION_DOT":4.6e-7,"MEAN_MOTION_DDOT":0},{"OBJECT_NAME":"GOES 14","OBJECT_ID":"2009-033A","EPOCH":"2026-03-05T18:22:31.486080","MEAN_MOTION":1.00100039,"ECCENTRICITY":0.0001794,"INCLINATION":1.4228,"RA_OF_ASC_NODE":84.4012,"ARG_OF_PERICENTER":254.3636,"MEAN_ANOMALY":301.3765,"EPHEMERIS_TYPE":0,"CLASSIFICATION_TYPE":"U","NORAD_CAT_ID":35491,"ELEMENT_SET_NO":999,"REV_AT_EPOCH":555,"BSTAR":0,"MEAN_MOTION_DOT":1.19e-6,"MEAN_MOTION_DDOT":0},{"OBJECT_NAME":"EWS-G2 (GOES 15)","OBJECT_ID":"2010-008A","EPOCH":"2026-03-05T19:26:02.894208","MEAN_MOTION":1.00269633,"ECCENTRICITY":0.0001969,"INCLINATION":1.0123,"RA_OF_ASC_NODE":85.121,"ARG_OF_PERICENTER":18.8974,"MEAN_ANOMALY":54.5005,"EPHEMERIS_TYPE":0,"CLASSIFICATION_TYPE":"U","NORAD_CAT_ID":36411,"ELEMENT_SET_NO":999,"REV_AT_EPOCH":5860,"BSTAR":0,"MEAN_MOTION_DOT":1.5e-7,"MEAN_MOTION_DDOT":0},{"OBJECT_NAME":"GOES 16","OBJECT_ID":"2016-071A","EPOCH":"2026-03-05T15:12:42.187104","MEAN_MOTION":1.00271863,"ECCENTRICITY":0.0002454,"INCLINATION":0.141,"RA_OF_ASC_NODE":89.5903,"ARG_OF_PERICENTER":220.5452,"MEAN_ANOMALY":336.6996,"EPHEMERIS_TYPE":0,"CLASSIFICATION_TYPE":"U","NORAD_CAT_ID":41866,"ELEMENT_SET_NO":999,"REV_AT_EPOCH":3406,"BSTAR":0,"MEAN_MOTION_DOT":-9.8e-7,"MEAN_MOTION_DDOT":0},{"OBJECT_NAME":"GOES 17","OBJECT_ID":"2018-022A","EPOCH":"2026-03-05T15:16:56.779392","MEAN_MOTION":1.00270245,"ECCENTRICITY":0.0002179,"INCLINATION":0.6713,"RA_OF_ASC_NODE":87.5289,"ARG_OF_PERICENTER":223.6197,"MEAN_ANOMALY":351.9387,"EPHEMERIS_TYPE":0,"CLASSIFICATION_TYPE":"U","NORAD_CAT_ID":43226,"ELEMENT_SET_NO":999,"REV_AT_EPOCH":2938,"BSTAR":0,"MEAN_MOTION_DOT":-1.89e-6,"MEAN_MOTION_DDOT":0}]
